{"type": "FeatureCollection", "features": [ {"type": "Feature", "properties": {"norad_id": 57401, "name": "TIANMU-1 09", "group": "weather", "lat": 55.32140270411267, "lon": 18.609571061569618, "alt_km": 473.50901709659956, "timestamp": "2025-12-05T22:40:48.202939+00:00", "meta": {"OBJECT_NAME": "TIANMU-1 09", "OBJECT_ID": "2023-101C", "EPOCH": "2025-12-05T06:43:05.512224", "MEAN_MOTION": 15.27917175, "ECCENTRICITY": 0.00067935, "INCLINATION": 97.2832, "RA_OF_ASC_NODE": 28.6121, "ARG_OF_PERICENTER": 104.0578, "MEAN_ANOMALY": 256.1417, "EPHEMERIS_TYPE": 0, "CLASSIFICATION_TYPE": "U", "NORAD_CAT_ID": 57401, "ELEMENT_SET_NO": 999, "REV_AT_EPOCH": 13201, "BSTAR": 0.000505783, "MEAN_MOTION_DOT": 0.00013729, "MEAN_MOTION_DDOT": 0}, "tle": {"line1": "1 57401U 23101C   25339.27992491  .00013729  00000+0  50578-3 0  9998", "line2": "2 57401  97.2832  28.6121 0006793 104.0578 256.1417 15.27917175132018"}}, "geometry": {"type": "Point", "coordinates": [18.609571061569618, 55.32140270411267]}}, {"type": "Feature", "properties": {"norad_id": 57402, "name": "TIANMU-1 10", "group": "weather", "lat": -47.91225859646178, "lon": -158.04527561669767, "alt_km": 492.3342117658294, "timestamp": "2025-12-05T22:40:48.202949+00:00", "meta": {"OBJECT_NAME": "TIANMU-1 10", "OBJECT_ID": "2023-101D", "EPOCH": "2025-12-05T05:57:59.661216", "MEAN_MOTION": 15.27905913, "ECCENTRICITY": 0.00085299, "INCLINATION": 97.2913, "RA_OF_ASC_NODE": 29.4234, "ARG_OF_PERICENTER": 104.9947, "MEAN_ANOMALY": 255.2238, "EPHEMERIS_TYPE": 0, "CLASSIFICATION_TYPE": "U", "NORAD_CAT_ID": 57402, "ELEMENT_SET_NO": 999, "REV_AT_EPOCH": 13200, "BSTAR": 0.00047626429, "MEAN_MOTION_DOT": 0.00012922, "MEAN_MOTION_DDOT": 0}, "tle": {"line1": "1 57402U 23101D   25339.24860719  .00012922  00000+0  47626-3 0  9997", "line2": "2 57402  97.2913  29.4234 0008529 104.9947 255.2238 15.27905913132008"}}, "geometry": {"type": "Point", "coordinates": [-158.04527561669767, -47.91225859646178]}}, {"type": "Feature", "properties": {"norad_id": 57490, "name": "FENGYUN 3F", "group": "weather", "lat": -66.25509253823701, "lon": -152.0448022062203, "alt_km": 833.3825306225963, "timestamp": "2025-12-05T22:40:48.202962+00:00", "meta": {"OBJECT_NAME": "FENGYUN 3F", "OBJECT_ID": "2023-111A", "EPOCH": "2025-12-05T07:59:12.657696", "MEAN_MOTION": 14.19890554, "ECCENTRICITY": 6.669e-05, "INCLINATION": 98.7093, "RA_OF_ASC_NODE": 47.7455, "ARG_OF_PERICENTER": 89.0254, "MEAN_ANOMALY": 271.0999, "EPHEMERIS_TYPE": 0, "CLASSIFICATION_TYPE": "U", "NORAD_CAT_ID": 57490, "ELEMENT_SET_NO": 999, "REV_AT_EPOCH": 12135, "BSTAR": 0.00011169542, "MEAN_MOTION_DOT": 1.93e-06, "MEAN_MOTION_DDOT": 0}, "tle": {"line1": "1 57490U 23111A   25339.33278539  .00000193  00000+0  11170-3 0  9990", "line2": "2 57490  98.7093  47.7455 0000666  89.0254 271.0999 14.19890554121356"}}, "geometry": {"type": "Point", "coordinates": [-152.0448022062203, -66.25509253823701]}}, {"type": "Feature", "properties": {"norad_id": 58584, "name": "ARKTIKA-M 2", "group": "weather", "lat": 51.21985609746888, "lon": -145.41070159191804, "alt_km": 29651.41878197541, "timestamp": "2025-12-05T22:40:48.202975+00:00", "meta": {"OBJECT_NAME": "ARKTIKA-M 2", "OBJECT_ID": "2023-198A", "EPOCH": "2025-12-03T08:34:19.284960", "MEAN_MOTION": 2.00605176, "ECCENTRICITY": 0.68642509, "INCLINATION": 63.2223, "RA_OF_ASC_NODE": 175.9121, "ARG_OF_PERICENTER": 268.1397, "MEAN_ANOMALY": 18.842, "EPHEMERIS_TYPE": 0, "CLASSIFICATION_TYPE": "U", "NORAD_CAT_ID": 58584, "ELEMENT_SET_NO": 999, "REV_AT_EPOCH": 1439, "BSTAR": 0, "MEAN_MOTION_DOT": 2.24e-06, "MEAN_MOTION_DDOT": 0}, "tle": {"line1": "1 58584U 23198A   25337.35716765  .00000224  00000+0  00000+0 0  9999", "line2": "2 58584  63.2223 175.9121 6864250 268.1397  18.8420  2.00605176 14390"}}, "geometry": {"type": "Point", "coordinates": [-145.41070159191804, 51.21985609746888]}}, {"type": "Feature", "properties": {"norad_id": 58645, "name": "TIANMU-1 11", "group": "weather", "lat": 47.451718342828464, "lon": -172.21542378632032, "alt_km": 493.5435604303557, "timestamp": "2025-12-05T22:40:48.202987+00:00", "meta": {"OBJECT_NAME": "TIANMU-1 11", "OBJECT_ID": "2023-205A", "EPOCH": "2025-12-05T07:55:31.012320", "MEAN_MOTION": 15.24463713, "ECCENTRICITY": 0.00086338, "INCLINATION": 97.3605, "RA_OF_ASC_NODE": 359.0847, "ARG_OF_PERICENTER": 339.9405, "MEAN_ANOMALY": 20.1492, "EPHEMERIS_TYPE": 0, "CLASSIFICATION_TYPE": "U", "NORAD_CAT_ID": 58645, "ELEMENT_SET_NO": 999, "REV_AT_EPOCH": 10796, "BSTAR": 0.00047491352, "MEAN_MOTION_DOT": 0.00011611, "MEAN_MOTION_DDOT": 0}, "tle": {"line1": "1 58645U 23205A   25339.33022005  .00011611  00000+0  47491-3 0  9994", "line2": "2 58645  97.3605 359.0847 0008633 339.9405  20.1492 15.24463713107966"}}, "geometry": {"type": "Point", "coordinates": [-172.21542378632032, 47.451718342828464]}}, {"type": "Feature", "properties": {"norad_id": 58646, "name": "TIANMU-1 12", "group": "weather", "lat": -13.212841722314097, "lon": 1.235204644794098, "alt_km": 493.20117686191224, "timestamp": "2025-12-05T22:40:48.202997+00:00", "meta": {"OBJECT_NAME": "TIANMU-1 12", "OBJECT_ID": "2023-205B", "EPOCH": "2025-12-05T06:59:02.825952", "MEAN_MOTION": 15.2437511, "ECCENTRICITY": 0.0006468, "INCLINATION": 97.3592, "RA_OF_ASC_NODE": 358.8541, "ARG_OF_PERICENTER": 324.9962, "MEAN_ANOMALY": 35.0849, "EPHEMERIS_TYPE": 0, "CLASSIFICATION_TYPE": "U", "NORAD_CAT_ID": 58646, "ELEMENT_SET_NO": 999, "REV_AT_EPOCH": 10794, "BSTAR": 0.00045441582, "MEAN_MOTION_DOT": 0.00011072, "MEAN_MOTION_DDOT": 0}, "tle": {"line1": "1 58646U 23205B   25339.29100493  .00011072  00000+0  45442-3 0  9993", "line2": "2 58646  97.3592 358.8541 0006468 324.9962  35.0849 15.24375110107948"}}, "geometry": {"type": "Point", "coordinates": [1.235204644794098, -13.212841722314097]}}, {"type": "Feature", "properties": {"norad_id": 58647, "name": "TIANMU-1 13", "group": "weather", "lat": 17.80552657768006, "lon": -177.9256671640127, "alt_km": 496.24250056366145, "timestamp": "2025-12-05T22:40:48.203008+00:00", "meta": {"OBJECT_NAME": "TIANMU-1 13", "OBJECT_ID": "2023-205C", "EPOCH": "2025-12-05T07:47:34.080000", "MEAN_MOTION": 15.24383862, "ECCENTRICITY": 0.00062504, "INCLINATION": 97.3621, "RA_OF_ASC_NODE": 359.085, "ARG_OF_PERICENTER": 301.0558, "MEAN_ANOMALY": 59.0065, "EPHEMERIS_TYPE": 0, "CLASSIFICATION_TYPE": "U", "NORAD_CAT_ID": 58647, "ELEMENT_SET_NO": 999, "REV_AT_EPOCH": 10794, "BSTAR": 0.00046116149, "MEAN_MOTION_DOT": 0.0001124, "MEAN_MOTION_DDOT": 0}, "tle": {"line1": "1 58647U 23205C   25339.32470000  .00011240  00000+0  46116-3 0  9998", "line2": "2 58647  97.3621 359.0850 0006250 301.0558  59.0065 15.24383862107943"}}, "geometry": {"type": "Point", "coordinates": [-177.9256671640127, 17.80552657768006]}}, {"type": "Feature", "properties": {"norad_id": 58648, "name": "TIANMU-1 14", "group": "weather", "lat": -71.87937373562814, "lon": 155.80067094012145, "alt_km": 496.8053077790664, "timestamp": "2025-12-05T22:40:48.203020+00:00", "meta": {"OBJECT_NAME": "TIANMU-1 14", "OBJECT_ID": "2023-205D", "EPOCH": "2025-12-05T07:23:32.803584", "MEAN_MOTION": 15.24367443, "ECCENTRICITY": 0.00071293, "INCLINATION": 97.3552, "RA_OF_ASC_NODE": 358.4242, "ARG_OF_PERICENTER": 305.4997, "MEAN_ANOMALY": 54.5575, "EPHEMERIS_TYPE": 0, "CLASSIFICATION_TYPE": "U", "NORAD_CAT_ID": 58648, "ELEMENT_SET_NO": 999, "REV_AT_EPOCH": 10794, "BSTAR": 0.00044641641, "MEAN_MOTION_DOT": 0.00010874, "MEAN_MOTION_DDOT": 0}, "tle": {"line1": "1 58648U 23205D   25339.30801856  .00010874  00000+0  44642-3 0  9998", "line2": "2 58648  97.3552 358.4242 0007129 305.4997  54.5575 15.24367443107949"}}, "geometry": {"type": "Point", "coordinates": [155.80067094012145, -71.87937373562814]}}, {"type": "Feature", "properties": {"norad_id": 58660, "name": "TIANMU-1 19", "group": "weather", "lat": 66.26145171358655, "lon": 73.71112980589417, "alt_km": 478.61712585895293, "timestamp": "2025-12-05T22:40:48.203031+00:00", "meta": {"OBJECT_NAME": "TIANMU-1 19", "OBJECT_ID": "2023-208A", "EPOCH": "2025-12-05T06:39:56.003328", "MEAN_MOTION": 15.27641762, "ECCENTRICITY": 0.00040917, "INCLINATION": 97.4397, "RA_OF_ASC_NODE": 90.3313, "ARG_OF_PERICENTER": 286.5497, "MEAN_ANOMALY": 73.5293, "EPHEMERIS_TYPE": 0, "CLASSIFICATION_TYPE": "U", "NORAD_CAT_ID": 58660, "ELEMENT_SET_NO": 999, "REV_AT_EPOCH": 10768, "BSTAR": 0.00060163739, "MEAN_MOTION_DOT": 0.00016204, "MEAN_MOTION_DDOT": 0}, "tle": {"line1": "1 58660U 23208A   25339.27773152  .00016204  00000+0  60164-3 0  9998", "line2": "2 58660  97.4397  90.3313 0004091 286.5497  73.5293 15.27641762107682"}}, "geometry": {"type": "Point", "coordinates": [73.71112980589417, 66.26145171358655]}}, {"type": "Feature", "properties": {"norad_id": 58661, "name": "TIANMU-1 20", "group": "weather", "lat": 66.26605261139986, "lon": -71.287547083705, "alt_km": 477.19928016600807, "timestamp": "2025-12-05T22:40:48.203041+00:00", "meta": {"OBJECT_NAME": "TIANMU-1 20", "OBJECT_ID": "2023-208B", "EPOCH": "2025-12-05T06:28:51.401568", "MEAN_MOTION": 15.2883346, "ECCENTRICITY": 0.00064188, "INCLINATION": 97.4334, "RA_OF_ASC_NODE": 90.7639, "ARG_OF_PERICENTER": 297.1626, "MEAN_ANOMALY": 62.8959, "EPHEMERIS_TYPE": 0, "CLASSIFICATION_TYPE": "U", "NORAD_CAT_ID": 58661, "ELEMENT_SET_NO": 999, "REV_AT_EPOCH": 10775, "BSTAR": 0.00058685356, "MEAN_MOTION_DOT": 0.00016395, "MEAN_MOTION_DDOT": 0}, "tle": {"line1": "1 58661U 23208B   25339.27003937  .00016395  00000+0  58685-3 0  9992", "line2": "2 58661  97.4334  90.7639 0006418 297.1626  62.8959 15.28833460107753"}}, "geometry": {"type": "Point", "coordinates": [-71.287547083705, 66.26605261139986]}}]}